{"type": "FeatureCollection", "features": [{"type": "Feature", "properties": {"norad_id": 24946, "name": "IRIDIUM 33", "group": "iridium-33-debris", "lat": -3.4954625887503377, "lon": 71.49731729839458, "alt_km": 780.9153297337789, "timestamp": "2025-12-04T09:47:37.904585+00:00", "meta": {"OBJECT_NAME": "IRIDIUM 33", "OBJECT_ID": "1997-051C", "EPOCH": "2025-12-03T18:44:55.101120", "MEAN_MOTION": 14.35026626, "ECCENTRICITY": 0.00061595, "INCLINATION": 86.3871, "RA_OF_ASC_NODE": 71.9815, "ARG_OF_PERICENTER": 234.9647, "MEAN_ANOMALY": 125.0972, "EPHEMERIS_TYPE": 0, "CLASSIFICATION_TYPE": "U", "NORAD_CAT_ID": 24946, "ELEMENT_SET_NO": 999, "REV_AT_EPOCH": 47706, "BSTAR": 0.00019630892, "MEAN_MOTION_DOT": 5.79e-06, "MEAN_MOTION_DDOT": 0}, "tle": {"line1": "1 24946U 97051C   25337.78119330  .00000579  00000+0  19631-3 0  9992", "line2": "2 24946  86.3871  71.9815 0006159 234.9647 125.0972 14.35026626477062"}}, "geometry": {"type": "Point", "coordinates": [71.49731729839458, -3.4954625887503377]}}, {"type": "Feature", "properties": {"norad_id": 33773, "name": "IRIDIUM 33 DEB", "group": "iridium-33-debris", "lat": 67.22910952191684, "lon": 72.74179733657316, "alt_km": 743.4469728347713, "timestamp": "2025-12-04T09:47:37.904613+00:00", "meta": {"OBJECT_NAME": "IRIDIUM 33 DEB", "OBJECT_ID": "1997-051L", "EPOCH": "2025-12-04T04:29:22.955136", "MEAN_MOTION": 14.43227722, "ECCENTRICITY": 0.0011567, "INCLINATION": 86.4014, "RA_OF_ASC_NODE": 64.2131, "ARG_OF_PERICENTER": 172.7623, "MEAN_ANOMALY": 187.3747, "EPHEMERIS_TYPE": 0, "CLASSIFICATION_TYPE": "U", "NORAD_CAT_ID": 33773, "ELEMENT_SET_NO": 999, "REV_AT_EPOCH": 88224, "BSTAR": 0.00064804, "MEAN_MOTION_DOT": 2.2e-05, "MEAN_MOTION_DDOT": 0}, "tle": {"line1": "1 33773U 97051L   25338.18707124  .00002200  00000+0  64804-3 0  9994", "line2": "2 33773  86.4014  64.2131 0011567 172.7623 187.3747 14.43227722882248"}}, "geometry": {"type": "Point", "coordinates": [72.74179733657316, 67.22910952191684]}}, {"type": "Feature", "properties": {"norad_id": 33775, "name": "IRIDIUM 33 DEB", "group": "iridium-33-debris", "lat": -24.850126293945006, "lon": -125.20267404164922, "alt_km": 750.7193190440685, "timestamp": "2025-12-04T09:47:37.904628+00:00", "meta": {"OBJECT_NAME": "IRIDIUM 33 DEB", "OBJECT_ID": "1997-051N", "EPOCH": "2025-12-04T04:08:13.949952", "MEAN_MOTION": 14.41439472, "ECCENTRICITY": 0.0013301, "INCLINATION": 86.3643, "RA_OF_ASC_NODE": 53.2105, "ARG_OF_PERICENTER": 181.7923, "MEAN_ANOMALY": 240.6552, "EPHEMERIS_TYPE": 0, "CLASSIFICATION_TYPE": "U", "NORAD_CAT_ID": 33775, "ELEMENT_SET_NO": 999, "REV_AT_EPOCH": 88017, "BSTAR": 0.0006498, "MEAN_MOTION_DOT": 2.128e-05, "MEAN_MOTION_DDOT": 0}, "tle": {"line1": "1 33775U 97051N   25338.17238368  .00002128  00000+0  64980-3 0  9998", "line2": "2 33775  86.3643  53.2105 0013301 181.7923 240.6552 14.41439472880179"}}, "geometry": {"type": "Point", "coordinates": [-125.20267404164922, -24.850126293945006]}}, {"type": "Feature", "properties": {"norad_id": 33776, "name": "IRIDIUM 33 DEB", "group": "iridium-33-debris", "lat": 8.762704190805925, "lon": -96.2809970235085, "alt_km": 759.8623161596697, "timestamp": "2025-12-04T09:47:37.904641+00:00", "meta": {"OBJECT_NAME": "IRIDIUM 33 DEB", "OBJECT_ID": "1997-051P", "EPOCH": "2025-12-04T01:27:18.984960", "MEAN_MOTION": 14.38208616, "ECCENTRICITY": 0.0013413, "INCLINATION": 86.4038, "RA_OF_ASC_NODE": 84.4203, "ARG_OF_PERICENTER": 220.3755, "MEAN_ANOMALY": 313.0881, "EPHEMERIS_TYPE": 0, "CLASSIFICATION_TYPE": "U", "NORAD_CAT_ID": 33776, "ELEMENT_SET_NO": 999, "REV_AT_EPOCH": 87957, "BSTAR": 0.00057038, "MEAN_MOTION_DOT": 1.752e-05, "MEAN_MOTION_DDOT": 0}, "tle": {"line1": "1 33776U 97051P   25338.06063640  .00001752  00000+0  57038-3 0  9994", "line2": "2 33776  86.4038  84.4203 0013413 220.3755 313.0881 14.38208616879573"}}, "geometry": {"type": "Point", "coordinates": [-96.2809970235085, 8.762704190805925]}}, {"type": "Feature", "properties": {"norad_id": 33777, "name": "IRIDIUM 33 DEB", "group": "iridium-33-debris", "lat": 20.41033911012447, "lon": -142.5223177873191, "alt_km": 710.0989356751043, "timestamp": "2025-12-04T09:47:37.904653+00:00", "meta": {"OBJECT_NAME": "IRIDIUM 33 DEB", "OBJECT_ID": "1997-051Q", "EPOCH": "2025-12-04T04:06:47.905056", "MEAN_MOTION": 14.5551004, "ECCENTRICITY": 0.0005147, "INCLINATION": 86.3799, "RA_OF_ASC_NODE": 38.9304, "ARG_OF_PERICENTER": 289.5346, "MEAN_ANOMALY": 70.5306, "EPHEMERIS_TYPE": 0, "CLASSIFICATION_TYPE": "U", "NORAD_CAT_ID": 33777, "ELEMENT_SET_NO": 999, "REV_AT_EPOCH": 88409, "BSTAR": 0.0021194, "MEAN_MOTION_DOT": 9.25e-05, "MEAN_MOTION_DDOT": 0}, "tle": {"line1": "1 33777U 97051Q   25338.17138779  .00009250  00000+0  21194-2 0  9997", "line2": "2 33777  86.3799  38.9304 0005147 289.5346  70.5306 14.55510040884097"}}, "geometry": {"type": "Point", "coordinates": [-142.5223177873191, 20.41033911012447]}}, {"type": "Feature", "properties": {"norad_id": 33850, "name": "IRIDIUM 33 DEB", "group": "iridium-33-debris", "lat": 14.599579103974913, "lon": -147.19292252232725, "alt_km": 745.0220474176158, "timestamp": "2025-12-04T09:47:37.904665+00:00", "meta": {"OBJECT_NAME": "IRIDIUM 33 DEB", "OBJECT_ID": "1997-051T", "EPOCH": "2025-12-03T22:10:26.250816", "MEAN_MOTION": 14.42117824, "ECCENTRICITY": 0.00112726, "INCLINATION": 86.3424, "RA_OF_ASC_NODE": 33.9698, "ARG_OF_PERICENTER": 188.7518, "MEAN_ANOMALY": 344.5598, "EPHEMERIS_TYPE": 0, "CLASSIFICATION_TYPE": "U", "NORAD_CAT_ID": 33850, "ELEMENT_SET_NO": 999, "REV_AT_EPOCH": 88025, "BSTAR": 0.00074765401, "MEAN_MOTION_DOT": 2.478e-05, "MEAN_MOTION_DDOT": 0}, "tle": {"line1": "1 33850U 97051T   25337.92391494  .00002478  00000+0  74765-3 0  9994", "line2": "2 33850  86.3424  33.9698 0011272 188.7518 344.5598 14.42117824880252"}}, "geometry": {"type": "Point", "coordinates": [-147.19292252232725, 14.599579103974913]}}, {"type": "Feature", "properties": {"norad_id": 33853, "name": "IRIDIUM 33 DEB", "group": "iridium-33-debris", "lat": 40.806415942979584, "lon": -3.0710936152253954, "alt_km": 1007.1066547832297, "timestamp": "2025-12-04T09:47:37.904677+00:00", "meta": {"OBJECT_NAME": "IRIDIUM 33 DEB", "OBJECT_ID": "1997-051W", "EPOCH": "2025-12-03T12:03:16.669728", "MEAN_MOTION": 13.98961391, "ECCENTRICITY": 0.02068073, "INCLINATION": 86.0004, "RA_OF_ASC_NODE": 353.8627, "ARG_OF_PERICENTER": 264.3782, "MEAN_ANOMALY": 255.9822, "EPHEMERIS_TYPE": 0, "CLASSIFICATION_TYPE": "U", "NORAD_CAT_ID": 33853, "ELEMENT_SET_NO": 999, "REV_AT_EPOCH": 85216, "BSTAR": 0.0030737187, "MEAN_MOTION_DOT": 5.345e-05, "MEAN_MOTION_DDOT": 0}, "tle": {"line1": "1 33853U 97051W   25337.50227627  .00005345  00000+0  30737-2 0  9993", "line2": "2 33853  86.0004 353.8627 0206807 264.3782 255.9822 13.98961391852166"}}, "geometry": {"type": "Point", "coordinates": [-3.0710936152253954, 40.806415942979584]}}, {"type": "Feature", "properties": {"norad_id": 33860, "name": "IRIDIUM 33 DEB", "group": "iridium-33-debris", "lat": 65.64936359367869, "lon": 38.955476067004476, "alt_km": 659.1959972287677, "timestamp": "2025-12-04T09:47:37.904688+00:00", "meta": {"OBJECT_NAME": "IRIDIUM 33 DEB", "OBJECT_ID": "1997-051AD", "EPOCH": "2025-12-03T10:38:45.202272", "MEAN_MOTION": 14.67161247, "ECCENTRICITY": 0.0008596, "INCLINATION": 86.385, "RA_OF_ASC_NODE": 31.3522, "ARG_OF_PERICENTER": 28.3403, "MEAN_ANOMALY": 346.5569, "EPHEMERIS_TYPE": 0, "CLASSIFICATION_TYPE": "U", "NORAD_CAT_ID": 33860, "ELEMENT_SET_NO": 999, "REV_AT_EPOCH": 88586, "BSTAR": 0.0017679929, "MEAN_MOTION_DOT": 9.972e-05, "MEAN_MOTION_DDOT": 0}, "tle": {"line1": "1 33860U 97051AD  25337.44357873  .00009972  00000+0  17680-2 0  9993", "line2": "2 33860  86.3850  31.3522 0008596  28.3403 346.5569 14.67161247885868"}}, "geometry": {"type": "Point", "coordinates": [38.955476067004476, 65.64936359367869]}}, {"type": "Feature", "properties": {"norad_id": 33862, "name": "IRIDIUM 33 DEB", "group": "iridium-33-debris", "lat": 37.96914811740153, "lon": 44.01198547464836, "alt_km": 640.9164300426492, "timestamp": "2025-12-04T09:47:37.904699+00:00", "meta": {"OBJECT_NAME": "IRIDIUM 33 DEB", "OBJECT_ID": "1997-051AF", "EPOCH": "2025-12-03T16:12:45.413568", "MEAN_MOTION": 14.69222716, "ECCENTRICITY": 0.00540747, "INCLINATION": 86.4101, "RA_OF_ASC_NODE": 41.5264, "ARG_OF_PERICENTER": 99.4466, "MEAN_ANOMALY": 27.1192, "EPHEMERIS_TYPE": 0, "CLASSIFICATION_TYPE": "U", "NORAD_CAT_ID": 33862, "ELEMENT_SET_NO": 999, "REV_AT_EPOCH": 88690, "BSTAR": 0.0020462598, "MEAN_MOTION_DOT": 0.0001236, "MEAN_MOTION_DDOT": 0}, "tle": {"line1": "1 33862U 97051AF  25337.67552562  .00012360  00000+0  20463-2 0  9990", "line2": "2 33862  86.4101  41.5264 0054074  99.4466  27.1192 14.69222716886907"}}, "geometry": {"type": "Point", "coordinates": [44.01198547464836, 37.96914811740153]}}, {"type": "Feature", "properties": {"norad_id": 33866, "name": "IRIDIUM 33 DEB", "group": "iridium-33-debris", "lat": -14.323755563424973, "lon": 95.6131524107969, "alt_km": 887.9829929110201, "timestamp": "2025-12-04T09:47:37.904710+00:00", "meta": {"OBJECT_NAME": "IRIDIUM 33 DEB", "OBJECT_ID": "1997-051AK", "EPOCH": "2025-12-03T08:50:48.901920", "MEAN_MOTION": 14.25219287, "ECCENTRICITY": 0.0113711, "INCLINATION": 86.2997, "RA_OF_ASC_NODE": 96.9997, "ARG_OF_PERICENTER": 191.2792, "MEAN_ANOMALY": 224.088, "EPHEMERIS_TYPE": 0, "CLASSIFICATION_TYPE": "U", "NORAD_CAT_ID": 33866, "ELEMENT_SET_NO": 999, "REV_AT_EPOCH": 86677, "BSTAR": 0.001023, "MEAN_MOTION_DOT": 2.59e-05, "MEAN_MOTION_DDOT": 0}, "tle": {"line1": "1 33866U 97051AK  25337.36862155  .00002590  00000+0  10230-2 0  9997", "line2": "2 33866  86.2997  96.9997 0113711 191.2792 224.0880 14.25219287866772"}}, "geometry": {"type": "Point", "coordinates": [95.6131524107969, -14.323755563424973]}}]}